STARLINK-37289          
1 68545U 26070D   26099.83335647 -.00900670  27237-3 -17996-2 0  9990
2 68545  53.1583 228.8467 0000781  53.1013 239.3328 15.99110289  2389
