{
  "norad_id": 68545,
  "name": "STARLINK-37289",
  "history": [
    {
      "epoch": "2026-04-09T20:00:01.999008Z",
      "apogee_km": 277.405790328733,
      "perigee_km": 276.36627573097394,
      "latitude_deg": -47.89718093090428,
      "longitude_deg": 35.233104563126986,
      "height_km": 293.5328071791905,
      "semi_major_axis_km": 6655.023033029853,
      "eccentricity": 7.81e-05,
      "inclination_deg": 53.1583,
      "raan_deg": 228.8467,
      "arg_perigee_deg": 53.1013,
      "mean_anomaly_deg": 239.3328,
      "mean_motion_rev_day": 15.99110289
    }
  ]
}